[{"OBJECT_NAME":"STARLINK-2061","OBJECT_ID":"2021-036AN","EPOCH":"2026-03-09T10:19:15.870720","MEAN_MOTION":15.30022568,"ECCENTRICITY":0.0001503,"INCLINATION":53.1566,"RA_OF_ASC_NODE":89.6098,"ARG_OF_PERICENTER":91.5075,"MEAN_ANOMALY":268.6098,"EPHEMERIS_TYPE":0,"CLASSIFICATION_TYPE":"U","NORAD_CAT_ID":48312,"ELEMENT_SET_NO":999,"REV_AT_EPOCH":26818,"BSTAR":0.0029335749,"MEAN_MOTION_DOT":0.00087068,"MEAN_MOTION_DDOT":0},{"OBJECT_NAME":"CZ-4B R\/B","OBJECT_ID":"2010-051C","EPOCH":"2026-03-09T16:48:37.977120","MEAN_MOTION":15.17426017,"ECCENTRICITY":0.00758037,"INCLINATION":97.7974,"RA_OF_ASC_NODE":110.8647,"ARG_OF_PERICENTER":95.044,"MEAN_ANOMALY":265.9451,"EPHEMERIS_TYPE":0,"CLASSIFICATION_TYPE":"U","NORAD_CAT_ID":37181,"ELEMENT_SET_NO":999,"REV_AT_EPOCH":84355,"BSTAR":0.00029718512,"MEAN_MOTION_DOT":6.328e-5,"MEAN_MOTION_DDOT":0}]
